{"type": "FeatureCollection", "features": [ {"type": "Feature", "properties": {"norad_id": 42917, "name": "QZS-3 (QZSS/PRN 199)", "group": "gnss", "lat": 0.05534248612578647, "lon": -13.958519179740058, "alt_km": 35784.79862049502, "timestamp": "2025-12-06T09:34:17.157085+00:00", "meta": {"OBJECT_NAME": "QZS-3 (QZSS/PRN 199)", "OBJECT_ID": "2017-048A", "EPOCH": "2025-12-05T21:08:52.212768", "MEAN_MOTION": 1.00274806, "ECCENTRICITY": 0.00022179, "INCLINATION": 0.0696, "RA_OF_ASC_NODE": 215.993, "ARG_OF_PERICENTER": 43.1582, "MEAN_ANOMALY": 260.0076, "EPHEMERIS_TYPE": 0, "CLASSIFICATION_TYPE": "U", "NORAD_CAT_ID": 42917, "ELEMENT_SET_NO": 999, "REV_AT_EPOCH": 3032, "BSTAR": 0, "MEAN_MOTION_DOT": -3.38e-06, "MEAN_MOTION_DDOT": 0}, "tle": {"line1": "1 42917U 17048A   25339.88115987 -.00000338  00000+0  00000+0 0  9995", "line2": "2 42917   0.0696 215.9930 0002217  43.1582 260.0076  1.00274806 30327"}}, "geometry": {"type": "Point", "coordinates": [-13.958519179740058, 0.05534248612578647]}}, {"type": "Feature", "properties": {"norad_id": 42939, "name": "COSMOS 2522 (752)", "group": "gnss", "lat": 58.6403423824454, "lon": -34.50407866587801, "alt_km": 19131.20044719231, "timestamp": "2025-12-06T09:34:17.157097+00:00", "meta": {"OBJECT_NAME": "COSMOS 2522 (752)", "OBJECT_ID": "2017-055A", "EPOCH": "2025-12-02T23:20:47.282208", "MEAN_MOTION": 2.1310185, "ECCENTRICITY": 0.00065327, "INCLINATION": 64.0758, "RA_OF_ASC_NODE": 198.5618, "ARG_OF_PERICENTER": 226.0683, "MEAN_ANOMALY": 133.9743, "EPHEMERIS_TYPE": 0, "CLASSIFICATION_TYPE": "U", "NORAD_CAT_ID": 42939, "ELEMENT_SET_NO": 999, "REV_AT_EPOCH": 6379, "BSTAR": 0, "MEAN_MOTION_DOT": 1.07e-06, "MEAN_MOTION_DDOT": 0}, "tle": {"line1": "1 42939U 17055A   25336.97276947  .00000107  00000+0  00000+0 0  9991", "line2": "2 42939  64.0758 198.5618 0006532 226.0683 133.9743  2.13101850 63796"}}, "geometry": {"type": "Point", "coordinates": [-34.50407866587801, 58.6403423824454]}}, {"type": "Feature", "properties": {"norad_id": 42965, "name": "QZS-4 (QZSS/PRN 195)", "group": "gnss", "lat": 11.739594627864937, "lon": 0.177686675710121, "alt_km": 36500.54530646959, "timestamp": "2025-12-06T09:34:17.157109+00:00", "meta": {"OBJECT_NAME": "QZS-4 (QZSS/PRN 195)", "OBJECT_ID": "2017-062A", "EPOCH": "2025-12-05T08:09:51.681600", "MEAN_MOTION": 1.00254072, "ECCENTRICITY": 0.07525124, "INCLINATION": 40.2297, "RA_OF_ASC_NODE": 345.9658, "ARG_OF_PERICENTER": 271.3417, "MEAN_ANOMALY": 76.5316, "EPHEMERIS_TYPE": 0, "CLASSIFICATION_TYPE": "U", "NORAD_CAT_ID": 42965, "ELEMENT_SET_NO": 999, "REV_AT_EPOCH": 2985, "BSTAR": 0, "MEAN_MOTION_DOT": -3.35e-06, "MEAN_MOTION_DDOT": 0}, "tle": {"line1": "1 42965U 17062A   25339.34018150 -.00000335  00000+0  00000+0 0  9996", "line2": "2 42965  40.2297 345.9658 0752512 271.3417  76.5316  1.00254072 29852"}}, "geometry": {"type": "Point", "coordinates": [0.177686675710121, 11.739594627864937]}}, {"type": "Feature", "properties": {"norad_id": 43001, "name": "BEIDOU-3 M1 (C19)", "group": "gnss", "lat": 18.157981930617876, "lon": 81.96694607690104, "alt_km": 21520.912881789587, "timestamp": "2025-12-06T09:34:17.157121+00:00", "meta": {"OBJECT_NAME": "BEIDOU-3 M1 (C19)", "OBJECT_ID": "2017-069A", "EPOCH": "2025-12-03T03:27:53.485056", "MEAN_MOTION": 1.86230745, "ECCENTRICITY": 0.00088373, "INCLINATION": 56.5186, "RA_OF_ASC_NODE": 69.5514, "ARG_OF_PERICENTER": 303.7187, "MEAN_ANOMALY": 56.1997, "EPHEMERIS_TYPE": 0, "CLASSIFICATION_TYPE": "U", "NORAD_CAT_ID": 43001, "ELEMENT_SET_NO": 999, "REV_AT_EPOCH": 5495, "BSTAR": 0, "MEAN_MOTION_DOT": -4.9e-07, "MEAN_MOTION_DDOT": 0}, "tle": {"line1": "1 43001U 17069A   25337.14436904 -.00000049  00000+0  00000+0 0  9994", "line2": "2 43001  56.5186  69.5514 0008837 303.7187  56.1997  1.86230745 54952"}}, "geometry": {"type": "Point", "coordinates": [81.96694607690104, 18.157981930617876]}}, {"type": "Feature", "properties": {"norad_id": 43002, "name": "BEIDOU-3 M2 (C20)", "group": "gnss", "lat": 48.19061236068483, "lon": 117.11288056901677, "alt_km": 21522.831807945437, "timestamp": "2025-12-06T09:34:17.157133+00:00", "meta": {"OBJECT_NAME": "BEIDOU-3 M2 (C20)", "OBJECT_ID": "2017-069B", "EPOCH": "2025-12-04T16:38:46.347936", "MEAN_MOTION": 1.862306, "ECCENTRICITY": 0.00062566, "INCLINATION": 56.5195, "RA_OF_ASC_NODE": 69.536, "ARG_OF_PERICENTER": 331.7329, "MEAN_ANOMALY": 28.2399, "EPHEMERIS_TYPE": 0, "CLASSIFICATION_TYPE": "U", "NORAD_CAT_ID": 43002, "ELEMENT_SET_NO": 999, "REV_AT_EPOCH": 5497, "BSTAR": 0, "MEAN_MOTION_DOT": -4.9e-07, "MEAN_MOTION_DDOT": 0}, "tle": {"line1": "1 43002U 17069B   25338.69359199 -.00000049  00000+0  00000+0 0  9996", "line2": "2 43002  56.5195  69.5360 0006256 331.7329  28.2399  1.86230600 54972"}}, "geometry": {"type": "Point", "coordinates": [117.11288056901677, 48.19061236068483]}}, {"type": "Feature", "properties": {"norad_id": 43055, "name": "GSAT0215 (GALILEO 19)", "group": "gnss", "lat": -36.307296776476115, "lon": 77.59828327876507, "alt_km": 23226.207143217445, "timestamp": "2025-12-06T09:34:17.157147+00:00", "meta": {"OBJECT_NAME": "GSAT0215 (GALILEO 19)", "OBJECT_ID": "2017-079A", "EPOCH": "2025-11-29T13:52:03.216864", "MEAN_MOTION": 1.70473718, "ECCENTRICITY": 0.0001588, "INCLINATION": 55.1353, "RA_OF_ASC_NODE": 227.0004, "ARG_OF_PERICENTER": 310.5234, "MEAN_ANOMALY": 49.536, "EPHEMERIS_TYPE": 0, "CLASSIFICATION_TYPE": "U", "NORAD_CAT_ID": 43055, "ELEMENT_SET_NO": 999, "REV_AT_EPOCH": 4958, "BSTAR": 0, "MEAN_MOTION_DOT": 2.7e-07, "MEAN_MOTION_DDOT": 0}, "tle": {"line1": "1 43055U 17079A   25333.57781501  .00000027  00000+0  00000+0 0  9998", "line2": "2 43055  55.1353 227.0004 0001588 310.5234  49.5360  1.70473718 49587"}}, "geometry": {"type": "Point", "coordinates": [77.59828327876507, -36.307296776476115]}}, {"type": "Feature", "properties": {"norad_id": 43056, "name": "GSAT0216 (GALILEO 20)", "group": "gnss", "lat": 37.169786625035215, "lon": -101.3058041475683, "alt_km": 23218.201324751768, "timestamp": "2025-12-06T09:34:17.157158+00:00", "meta": {"OBJECT_NAME": "GSAT0216 (GALILEO 20)", "OBJECT_ID": "2017-079B", "EPOCH": "2025-12-03T23:24:20.577888", "MEAN_MOTION": 1.70473886, "ECCENTRICITY": 0.0002683, "INCLINATION": 55.1334, "RA_OF_ASC_NODE": 226.8793, "ARG_OF_PERICENTER": 313.43, "MEAN_ANOMALY": 46.6407, "EPHEMERIS_TYPE": 0, "CLASSIFICATION_TYPE": "U", "NORAD_CAT_ID": 43056, "ELEMENT_SET_NO": 999, "REV_AT_EPOCH": 4967, "BSTAR": 0, "MEAN_MOTION_DOT": 4.1e-07, "MEAN_MOTION_DDOT": 0}, "tle": {"line1": "1 43056U 17079B   25337.97523817  .00000041  00000+0  00000+0 0  9997", "line2": "2 43056  55.1334 226.8793 0002683 313.4300  46.6407  1.70473886 49678"}}, "geometry": {"type": "Point", "coordinates": [-101.3058041475683, 37.169786625035215]}}, {"type": "Feature", "properties": {"norad_id": 43057, "name": "GSAT0217 (GALILEO 21)", "group": "gnss", "lat": -55.096948198074244, "lon": 140.17991178966938, "alt_km": 23225.166012828926, "timestamp": "2025-12-06T09:34:17.157172+00:00", "meta": {"OBJECT_NAME": "GSAT0217 (GALILEO 21)", "OBJECT_ID": "2017-079C", "EPOCH": "2025-12-05T08:51:32.583168", "MEAN_MOTION": 1.70473837, "ECCENTRICITY": 0.00027976, "INCLINATION": 55.131, "RA_OF_ASC_NODE": 226.8388, "ARG_OF_PERICENTER": 341.0006, "MEAN_ANOMALY": 19.0865, "EPHEMERIS_TYPE": 0, "CLASSIFICATION_TYPE": "U", "NORAD_CAT_ID": 43057, "ELEMENT_SET_NO": 999, "REV_AT_EPOCH": 4968, "BSTAR": 0, "MEAN_MOTION_DOT": 3.8e-07, "MEAN_MOTION_DDOT": 0}, "tle": {"line1": "1 43057U 17079C   25339.36912712  .00000038  00000+0  00000+0 0  9995", "line2": "2 43057  55.1310 226.8388 0002797 341.0006  19.0865  1.70473837 49688"}}, "geometry": {"type": "Point", "coordinates": [140.17991178966938, -55.096948198074244]}}, {"type": "Feature", "properties": {"norad_id": 43058, "name": "GSAT0218 (GALILEO 22)", "group": "gnss", "lat": 34.10579080192704, "lon": 18.674691772018303, "alt_km": 23226.451777459235, "timestamp": "2025-12-06T09:34:17.157185+00:00", "meta": {"OBJECT_NAME": "GSAT0218 (GALILEO 22)", "OBJECT_ID": "2017-079D", "EPOCH": "2025-12-03T05:49:40.297728", "MEAN_MOTION": 1.70473824, "ECCENTRICITY": 0.00029171, "INCLINATION": 55.1321, "RA_OF_ASC_NODE": 226.8951, "ARG_OF_PERICENTER": 304.1404, "MEAN_ANOMALY": 55.9211, "EPHEMERIS_TYPE": 0, "CLASSIFICATION_TYPE": "U", "NORAD_CAT_ID": 43058, "ELEMENT_SET_NO": 999, "REV_AT_EPOCH": 4967, "BSTAR": 0, "MEAN_MOTION_DOT": 3.9e-07, "MEAN_MOTION_DDOT": 0}, "tle": {"line1": "1 43058U 17079D   25337.24282752  .00000039  00000+0  00000+0 0  9996", "line2": "2 43058  55.1321 226.8951 0002917 304.1404  55.9211  1.70473824 49672"}}, "geometry": {"type": "Point", "coordinates": [18.674691772018303, 34.10579080192704]}}, {"type": "Feature", "properties": {"norad_id": 43107, "name": "BEIDOU-3 M7 (C27)", "group": "gnss", "lat": -42.1733502302525, "lon": 169.26572864238742, "alt_km": 21539.975566827943, "timestamp": "2025-12-06T09:34:17.157197+00:00", "meta": {"OBJECT_NAME": "BEIDOU-3 M7 (C27)", "OBJECT_ID": "2018-003A", "EPOCH": "2025-12-04T23:22:06.674304", "MEAN_MOTION": 1.86232224, "ECCENTRICITY": 0.00026381, "INCLINATION": 54.5036, "RA_OF_ASC_NODE": 309.0851, "ARG_OF_PERICENTER": 70.1822, "MEAN_ANOMALY": 289.8293, "EPHEMERIS_TYPE": 0, "CLASSIFICATION_TYPE": "U", "NORAD_CAT_ID": 43107, "ELEMENT_SET_NO": 999, "REV_AT_EPOCH": 5373, "BSTAR": 0, "MEAN_MOTION_DOT": -7e-07, "MEAN_MOTION_DDOT": 0}, "tle": {"line1": "1 43107U 18003A   25338.97368836 -.00000070  00000+0  00000+0 0  9994", "line2": "2 43107  54.5036 309.0851 0002638  70.1822 289.8293  1.86232224 53734"}}, "geometry": {"type": "Point", "coordinates": [169.26572864238742, -42.1733502302525]}}]}